[{"OBJECT_NAME":"IRIDIUM 124","OBJECT_ID":"2017-039H","EPOCH":"2026-03-03T17:44:17.407968","MEAN_MOTION":14.43268686,"ECCENTRICITY":0.000211,"INCLINATION":86.4539,"RA_OF_ASC_NODE":334.4608,"ARG_OF_PERICENTER":84.0331,"MEAN_ANOMALY":276.111,"EPHEMERIS_TYPE":0,"CLASSIFICATION_TYPE":"U","NORAD_CAT_ID":42810,"ELEMENT_SET_NO":999,"REV_AT_EPOCH":45990,"BSTAR":0.0001542,"MEAN_MOTION_DOT":5.39e-6,"MEAN_MOTION_DDOT":0},{"OBJECT_NAME":"IRIDIUM 128","OBJECT_ID":"2017-039J","EPOCH":"2026-03-03T12:14:10.642560","MEAN_MOTION":14.34217712,"ECCENTRICITY":0.00020502,"INCLINATION":86.3907,"RA_OF_ASC_NODE":69.3316,"ARG_OF_PERICENTER":95.1295,"MEAN_ANOMALY":265.0135,"EPHEMERIS_TYPE":0,"CLASSIFICATION_TYPE":"U","NORAD_CAT_ID":42811,"ELEMENT_SET_NO":999,"REV_AT_EPOCH":45483,"BSTAR":6.195042e-6,"MEAN_MOTION_DOT":3.7e-7,"MEAN_MOTION_DDOT":0},{"OBJECT_NAME":"IRIDIUM 121","OBJECT_ID":"2017-039K","EPOCH":"2026-03-03T11:14:26.947680","MEAN_MOTION":14.34217461,"ECCENTRICITY":0.00021075,"INCLINATION":86.396,"RA_OF_ASC_NODE":37.8387,"ARG_OF_PERICENTER":90.1901,"MEAN_ANOMALY":269.9536,"EPHEMERIS_TYPE":0,"CLASSIFICATION_TYPE":"U","NORAD_CAT_ID":42812,"ELEMENT_SET_NO":999,"REV_AT_EPOCH":45467,"BSTAR":-3.770475e-6,"MEAN_MOTION_DOT":9.0e-8,"MEAN_MOTION_DDOT":0},{"OBJECT_NAME":"IRIDIUM 133","OBJECT_ID":"2017-061A","EPOCH":"2026-03-03T16:20:46.671936","MEAN_MOTION":14.34217629,"ECCENTRICITY":0.000213,"INCLINATION":86.3911,"RA_OF_ASC_NODE":69.3753,"ARG_OF_PERICENTER":90.7033,"MEAN_ANOMALY":269.4407,"EPHEMERIS_TYPE":0,"CLASSIFICATION_TYPE":"U","NORAD_CAT_ID":42955,"ELEMENT_SET_NO":999,"REV_AT_EPOCH":43965,"BSTAR":5.4284e-6,"MEAN_MOTION_DOT":3.5e-7,"MEAN_MOTION_DDOT":0},{"OBJECT_NAME":"IRIDIUM 100","OBJECT_ID":"2017-061B","EPOCH":"2026-03-03T12:50:42.618336","MEAN_MOTION":14.34217398,"ECCENTRICITY":0.0002043,"INCLINATION":86.3909,"RA_OF_ASC_NODE":69.3576,"ARG_OF_PERICENTER":90.1411,"MEAN_ANOMALY":270.0019,"EPHEMERIS_TYPE":0,"CLASSIFICATION_TYPE":"U","NORAD_CAT_ID":42956,"ELEMENT_SET_NO":999,"REV_AT_EPOCH":43963,"BSTAR":-5.8259e-6,"MEAN_MOTION_DOT":3.0e-8,"MEAN_MOTION_DDOT":0},{"OBJECT_NAME":"IRIDIUM 122","OBJECT_ID":"2017-061C","EPOCH":"2026-03-03T12:05:02.421600","MEAN_MOTION":14.34218083,"ECCENTRICITY":0.00021214,"INCLINATION":86.3907,"RA_OF_ASC_NODE":69.3705,"ARG_OF_PERICENTER":87.8874,"MEAN_ANOMALY":272.2565,"EPHEMERIS_TYPE":0,"CLASSIFICATION_TYPE":"U","NORAD_CAT_ID":42957,"ELEMENT_SET_NO":999,"REV_AT_EPOCH":43963,"BSTAR":3.2387814e-5,"MEAN_MOTION_DOT":1.1e-6,"MEAN_MOTION_DDOT":0},{"OBJECT_NAME":"IRIDIUM 129","OBJECT_ID":"2017-061D","EPOCH":"2026-03-03T12:41:34.680768","MEAN_MOTION":14.3421823,"ECCENTRICITY":0.0002535,"INCLINATION":86.3908,"RA_OF_ASC_NODE":69.4259,"ARG_OF_PERICENTER":87.3383,"MEAN_ANOMALY":272.8103,"EPHEMERIS_TYPE":0,"CLASSIFICATION_TYPE":"U","NORAD_CAT_ID":42958,"ELEMENT_SET_NO":999,"REV_AT_EPOCH":43965,"BSTAR":2.4322e-5,"MEAN_MOTION_DOT":8.8e-7,"MEAN_MOTION_DDOT":0},{"OBJECT_NAME":"IRIDIUM 119","OBJECT_ID":"2017-061E","EPOCH":"2026-03-03T11:55:54.683616","MEAN_MOTION":14.34217776,"ECCENTRICITY":0.0002258,"INCLINATION":86.391,"RA_OF_ASC_NODE":69.4345,"ARG_OF_PERICENTER":85.9828,"MEAN_ANOMALY":274.1626,"EPHEMERIS_TYPE":0,"CLASSIFICATION_TYPE":"U","NORAD_CAT_ID":42959,"ELEMENT_SET_NO":999,"REV_AT_EPOCH":43966,"BSTAR":3.99557e-6,"MEAN_MOTION_DOT":3.1e-7,"MEAN_MOTION_DDOT":0},{"OBJECT_NAME":"IRIDIUM 107","OBJECT_ID":"2017-061F","EPOCH":"2026-03-03T12:23:18.592224","MEAN_MOTION":14.34217911,"ECCENTRICITY":0.0001904,"INCLINATION":86.3909,"RA_OF_ASC_NODE":69.4472,"ARG_OF_PERICENTER":86.2778,"MEAN_ANOMALY":273.8636,"EPHEMERIS_TYPE":0,"CLASSIFICATION_TYPE":"U","NORAD_CAT_ID":42960,"ELEMENT_SET_NO":999,"REV_AT_EPOCH":43967,"BSTAR":1.0452e-5,"MEAN_MOTION_DOT":4.9e-7,"MEAN_MOTION_DDOT":0},{"OBJECT_NAME":"IRIDIUM 132","OBJECT_ID":"2017-061G","EPOCH":"2026-03-03T12:32:26.560896","MEAN_MOTION":14.34218081,"ECCENTRICITY":0.0002097,"INCLINATION":86.3909,"RA_OF_ASC_NODE":69.4247,"ARG_OF_PERICENTER":90.1321,"MEAN_ANOMALY":270.0115,"EPHEMERIS_TYPE":0,"CLASSIFICATION_TYPE":"U","NORAD_CAT_ID":42961,"ELEMENT_SET_NO":999,"REV_AT_EPOCH":43967,"BSTAR":2.9231e-5,"MEAN_MOTION_DOT":1.02e-6,"MEAN_MOTION_DDOT":0},{"OBJECT_NAME":"IRIDIUM 136","OBJECT_ID":"2017-061H","EPOCH":"2026-03-03T13:18:06.624576","MEAN_MOTION":14.34217732,"ECCENTRICITY":0.000206,"INCLINATION":86.3908,"RA_OF_ASC_NODE":69.4176,"ARG_OF_PERICENTER":87.0984,"MEAN_ANOMALY":273.0447,"EPHEMERIS_TYPE":0,"CLASSIFICATION_TYPE":"U","NORAD_CAT_ID":42962,"ELEMENT_SET_NO":999,"REV_AT_EPOCH":43969,"BSTAR":-2.0726e-6,"MEAN_MOTION_DOT":1.4e-7,"MEAN_MOTION_DDOT":0},{"OBJECT_NAME":"IRIDIUM 139","OBJECT_ID":"2017-061J","EPOCH":"2026-03-03T13:27:14.671008","MEAN_MOTION":14.34217765,"ECCENTRICITY":0.0002094,"INCLINATION":86.3911,"RA_OF_ASC_NODE":69.4752,"ARG_OF_PERICENTER":90.7338,"MEAN_ANOMALY":269.4098,"EPHEMERIS_TYPE":0,"CLASSIFICATION_TYPE":"U","NORAD_CAT_ID":42963,"ELEMENT_SET_NO":999,"REV_AT_EPOCH":43970,"BSTAR":3.8055e-6,"MEAN_MOTION_DOT":3.0e-7,"MEAN_MOTION_DDOT":0},{"OBJECT_NAME":"IRIDIUM 125","OBJECT_ID":"2017-061K","EPOCH":"2026-03-03T13:08:58.570368","MEAN_MOTION":14.34218164,"ECCENTRICITY":0.0002039,"INCLINATION":86.3911,"RA_OF_ASC_NODE":69.5398,"ARG_OF_PERICENTER":74.71,"MEAN_ANOMALY":285.4321,"EPHEMERIS_TYPE":0,"CLASSIFICATION_TYPE":"U","NORAD_CAT_ID":42964,"ELEMENT_SET_NO":999,"REV_AT_EPOCH":43971,"BSTAR":2.2503e-5,"MEAN_MOTION_DOT":8.3e-7,"MEAN_MOTION_DDOT":0},{"OBJECT_NAME":"IRIDIUM 135","OBJECT_ID":"2017-083A","EPOCH":"2026-03-03T07:30:19.612800","MEAN_MOTION":14.34217719,"ECCENTRICITY":0.0002169,"INCLINATION":86.4016,"RA_OF_ASC_NODE":6.2559,"ARG_OF_PERICENTER":85.8966,"MEAN_ANOMALY":274.2478,"EPHEMERIS_TYPE":0,"CLASSIFICATION_TYPE":"U","NORAD_CAT_ID":43070,"ELEMENT_SET_NO":999,"REV_AT_EPOCH":42897,"BSTAR":0.00012802568,"MEAN_MOTION_DOT":3.78e-6,"MEAN_MOTION_DDOT":0},{"OBJECT_NAME":"IRIDIUM 138","OBJECT_ID":"2017-083B","EPOCH":"2026-03-03T19:50:07.174752","MEAN_MOTION":14.34217985,"ECCENTRICITY":0.0002385,"INCLINATION":86.4029,"RA_OF_ASC_NODE":5.7208,"ARG_OF_PERICENTER":77.4438,"MEAN_ANOMALY":282.7025,"EPHEMERIS_TYPE":0,"CLASSIFICATION_TYPE":"U","NORAD_CAT_ID":43071,"ELEMENT_SET_NO":999,"REV_AT_EPOCH":42903,"BSTAR":1.1956e-5,"MEAN_MOTION_DOT":5.3e-7,"MEAN_MOTION_DDOT":0},{"OBJECT_NAME":"IRIDIUM 116","OBJECT_ID":"2017-083C","EPOCH":"2026-03-03T09:01:39.164736","MEAN_MOTION":14.34217714,"ECCENTRICITY":0.00019715,"INCLINATION":86.4017,"RA_OF_ASC_NODE":6.2169,"ARG_OF_PERICENTER":92.8085,"MEAN_ANOMALY":267.3336,"EPHEMERIS_TYPE":0,"CLASSIFICATION_TYPE":"U","NORAD_CAT_ID":43072,"ELEMENT_SET_NO":999,"REV_AT_EPOCH":42900,"BSTAR":1.619329e-6,"MEAN_MOTION_DOT":2.4e-7,"MEAN_MOTION_DDOT":0},{"OBJECT_NAME":"IRIDIUM 130","OBJECT_ID":"2017-083D","EPOCH":"2026-03-03T19:59:15.079488","MEAN_MOTION":14.34218327,"ECCENTRICITY":0.0001893,"INCLINATION":86.4022,"RA_OF_ASC_NODE":6.2908,"ARG_OF_PERICENTER":87.754,"MEAN_ANOMALY":272.3872,"EPHEMERIS_TYPE":0,"CLASSIFICATION_TYPE":"U","NORAD_CAT_ID":43073,"ELEMENT_SET_NO":999,"REV_AT_EPOCH":42901,"BSTAR":4.4973e-5,"MEAN_MOTION_DOT":1.46e-6,"MEAN_MOTION_DDOT":0}]
