IRIDIUM 124             
1 42810U 17039H   26062.73909037  .00000539  00000+0  15420-3 0  9990
2 42810  86.4539 334.4608 0002110  84.0331 276.1110 14.43268686459906
IRIDIUM 128             
1 42811U 17039J   26062.50984540  .00000037  00000+0  61950-5 0  9992
2 42811  86.3907  69.3316 0002050  95.1295 265.0135 14.34217712454835
IRIDIUM 121             
1 42812U 17039K   26062.46836745  .00000009  00000+0 -37705-5 0  9992
2 42812  86.3960  37.8387 0002107  90.1901 269.9536 14.34217461454676
IRIDIUM 133             
1 42955U 17061A   26062.68109574  .00000035  00000+0  54284-5 0  9991
2 42955  86.3911  69.3753 0002130  90.7033 269.4407 14.34217629439654
IRIDIUM 100             
1 42956U 17061B   26062.53521549  .00000003  00000+0 -58259-5 0  9998
2 42956  86.3909  69.3576 0002043  90.1411 270.0019 14.34217398439630
IRIDIUM 122             
1 42957U 17061C   26062.50350025  .00000110  00000+0  32388-4 0  9997
2 42957  86.3907  69.3705 0002121  87.8874 272.2565 14.34218083439638
IRIDIUM 129             
1 42958U 17061D   26062.52887362  .00000088  00000+0  24322-4 0  9992
2 42958  86.3908  69.4259 0002535  87.3383 272.8103 14.34218230439654
IRIDIUM 119             
1 42959U 17061E   26062.49716069  .00000031  00000+0  39956-5 0  9992
2 42959  86.3910  69.4345 0002258  85.9828 274.1626 14.34217776439664
IRIDIUM 107             
1 42960U 17061F   26062.51618741  .00000049  00000+0  10452-4 0  9993
2 42960  86.3909  69.4472 0001904  86.2778 273.8636 14.34217911439679
IRIDIUM 132             
1 42961U 17061G   26062.52252964  .00000102  00000+0  29231-4 0  9991
2 42961  86.3909  69.4247 0002097  90.1321 270.0115 14.34218081439672
IRIDIUM 136             
1 42962U 17061H   26062.55424334  .00000014  00000+0 -20726-5 0  9991
2 42962  86.3908  69.4176 0002060  87.0984 273.0447 14.34217732439698
IRIDIUM 139             
1 42963U 17061J   26062.56058647  .00000030  00000+0  38055-5 0  9994
2 42963  86.3911  69.4752 0002094  90.7338 269.4098 14.34217765439703
IRIDIUM 125             
1 42964U 17061K   26062.54790012  .00000083  00000+0  22503-4 0  9990
2 42964  86.3911  69.5398 0002039  74.7100 285.4321 14.34218164439711
IRIDIUM 135             
1 43070U 17083A   26062.31272700  .00000378  00000+0  12803-3 0  9995
2 43070  86.4016   6.2559 0002169  85.8966 274.2478 14.34217719428971
IRIDIUM 138             
1 43071U 17083B   26062.82647193  .00000053  00000+0  11956-4 0  9993
2 43071  86.4029   5.7208 0002385  77.4438 282.7025 14.34217985429037
IRIDIUM 116             
1 43072U 17083C   26062.37614774  .00000024  00000+0  16193-5 0  9990
2 43072  86.4017   6.2169 0001971  92.8085 267.3336 14.34217714429007
IRIDIUM 130             
1 43073U 17083D   26062.83281342  .00000146  00000+0  44973-4 0  9994
2 43073  86.4022   6.2908 0001893  87.7540 272.3872 14.34218327429010
